ONEWEB-0228             
1 48780U 21045P   24230.01790265 -.00000078  00000+0 -24063-3 0  9994
2 48780  87.9035  32.3364 0001653  91.7018 268.4302 13.15545985156343
